stk.v.11.0

BEGIN Ephemeris

NumberOfEphemerisPoints 11861
ScenarioEpoch           15 May 2026 07:53:34.000000
InterpolationMethod     Lagrange
InterpolationOrder      5
CentralBody             Earth
CoordinateSystem        Fixed
DistanceUnit            Meters

EphemerisTimePosVel

5.24100000000000e+05 -3.29111108143412e+07 1.16392052163825e+07 2.63956310130756e+06 8.66093737993494e+02 -1.10313838053537e+03 -4.00295573435190e+02
5.24160000000000e+05 -3.28591992953686e+07 1.15727062213722e+07 2.61550126275160e+06 8.64292155639476e+02 -1.11349624252731e+03 -4.01764996324245e+02
5.24220000000000e+05 -3.28073955182264e+07 1.15055854940845e+07 2.59135138896467e+06 8.62502445377437e+02 -1.12386276410188e+03 -4.03230058333082e+02
5.24280000000000e+05 -3.27556987522220e+07 1.14378425196146e+07 2.56711374572766e+06 8.60725220369480e+02 -1.13423778878481e+03 -4.04690621459619e+02
5.24340000000000e+05 -3.27041082297058e+07 1.13694767925910e+07 2.54278860717389e+06 8.58961099360341e+02 -1.14462115526547e+03 -4.06146545285805e+02
5.24400000000000e+05 -3.26526231457362e+07 1.13004878174692e+07 2.51837625593505e+06 8.57210706661452e+02 -1.15501269725336e+03 -4.07597686945116e+02
5.24460000000000e+05 -3.26012426577467e+07 1.12308751088353e+07 2.49387698328909e+06 8.55474672132286e+02 -1.16541224333207e+03 -4.09043901089936e+02
5.24520000000000e+05 -3.25499658852129e+07 1.11606381917177e+07 2.46929108931007e+06 8.53753631158854e+02 -1.17581961681046e+03 -4.10485039858819e+02
5.24580000000000e+05 -3.24987919094188e+07 1.10897766016261e+07 2.44461888301999e+06 8.52048224639577e+02 -1.18623463556379e+03 -4.11920952843684e+02
5.24640000000000e+05 -3.24477197727407e+07 1.10182898860116e+07 2.41986068254253e+06 8.50359098916641e+02 -1.19665711190917e+03 -4.13351487056916e+02
5.24700000000000e+05 -3.23967484789001e+07 1.09461776029101e+07 2.39501681525883e+06 8.48686905806914e+02 -1.20708685240420e+03 -4.14776486898432e+02
5.24760000000000e+05 -3.23458769922508e+07 1.08734393224227e+07 2.37008761796527e+06 8.47032302527025e+02 -1.21752365771705e+03 -4.16195794122693e+02
5.24820000000000e+05 -3.22951042375521e+07 1.08000746267914e+07 2.34507343703313e+06 8.45395951666230e+02 -1.22796732245668e+03 -4.17609247805719e+02
5.24880000000000e+05 -3.22444290996476e+07 1.07260831107674e+07 2.31997462857029e+06 8.43778521145521e+02 -1.23841763500787e+03 -4.19016684312089e+02
5.24940000000000e+05 -3.21938504231471e+07 1.06514643819900e+07 2.29479155858495e+06 8.42180684173087e+02 -1.24887437736337e+03 -4.20417937261984e+02
5.25000000000000e+05 -3.21433670121104e+07 1.05762180613746e+07 2.26952460315125e+06 8.40603119195995e+02 -1.25933732495353e+03 -4.21812837498270e+02
5.25060000000000e+05 -3.20929776297344e+07 1.05003437835123e+07 2.24417414857688e+06 8.39046509847957e+02 -1.26980624647304e+03 -4.23201213053650e+02
5.25120000000000e+05 -3.20426809981348e+07 1.04238411968003e+07 2.21874059157272e+06 8.37511544904181e+02 -1.28028090369779e+03 -4.24582889117924e+02
5.25180000000000e+05 -3.19924757976760e+07 1.03467099649767e+07 2.19322433942433e+06 8.35998918176487e+02 -1.29076105133547e+03 -4.25957688005361e+02
5.25240000000000e+05 -3.19423606672155e+07 1.02689497658786e+07 2.16762581016553e+06 8.34509328515021e+02 -1.30124643680058e+03 -4.27325429122229e+02
5.25300000000000e+05 -3.18923342034406e+07 1.01905602929996e+07 2.14194543275377e+06 8.33043479694769e+02 -1.31173680005969e+03 -4.28685928934499e+02
5.25360000000000e+05 -3.18423949606658e+07 1.01115412556638e+07 2.11618364724760e+06 8.31602080352734e+02 -1.32223187343765e+03 -4.30039000935757e+02
5.25420000000000e+05 -3.17925414505435e+07 1.00318923794895e+07 2.09034090498589e+06 8.30185843909326e+02 -1.33273138142845e+03 -4.31384455615361e+02
5.25480000000000e+05 -3.17427721417794e+07 9.95161340686522e+06 2.06441766876907e+06 8.28795488484826e+02 -1.34323504050353e+03 -4.32722100426858e+02
5.25540000000000e+05 -3.16930854598533e+07 9.87070409743670e+06 2.03841441304224e+06 8.27431736810809e+02 -1.35374255891752e+03 -4.34051739756719e+02
5.25600000000000e+05 -3.16434797868301e+07 9.78916422833070e+06 2.01233162408005e+06 8.26095316148189e+02 -1.36425363650432e+03 -4.35373174893402e+02
5.25660000000000e+05 -3.15939534607508e+07 9.70699359576664e+06 1.98616980017359e+06 8.24786958140687e+02 -1.37476796450662e+03 -4.36686203996798e+02
5.25720000000000e+05 -3.15445047758831e+07 9.62419201392746e+06 1.95992945181894e+06 8.23507398780983e+02 -1.38528522533120e+03 -4.37990622068087e+02
5.25780000000000e+05 -3.14951319821232e+07 9.54075931659638e+06 1.93361110190765e+06 8.22257378253119e+02 -1.39580509237366e+03 -4.39286220920053e+02
5.25840000000000e+05 -3.14458332848333e+07 9.45669535742855e+06 1.90721528591886e+06 8.21037640827961e+02 -1.40632722980495e+03 -4.40572789147884e+02
5.25900000000000e+05 -3.13966068445997e+07 9.37200001051082e+06 1.88074255211323e+06 8.19848934740842e+02 -1.41685129236287e+03 -4.41850112100514e+02
5.25960000000000e+05 -3.13474507769987e+07 9.28667317093403e+06 1.85419346172861e+06 8.18692012063005e+02 -1.42737692514132e+03 -4.43117971852547e+02
5.26020000000000e+05 -3.12983631523708e+07 9.20071475537799e+06 1.82756858917726e+06 8.17567628566644e+02 -1.43790376337754e+03 -4.44376147176805e+02
5.26080000000000e+05 -3.12493419956027e+07 9.11412470270939e+06 1.80086852224483e+06 8.16476543583383e+02 -1.44843143223725e+03 -4.45624413517545e+02
5.26140000000000e+05 -3.12003852859964e+07 9.02690297432127e+06 1.77409386229078e+06 8.15419519868695e+02 -1.45895954659077e+03 -4.46862542964408e+02
5.26200000000000e+05 -3.11514909567547e+07 8.93904955584227e+06 1.74724522445051e+06 8.14397323396073e+02 -1.46948771082284e+03 -4.48090304227134e+02
5.26260000000000e+05 -3.11026568952638e+07 8.85056445614494e+06 1.72032323783881e+06 8.13410723270556e+02 -1.48001551856963e+03 -4.49307462611102e+02
5.26320000000000e+05 -3.10538809425968e+07 8.76144770908231e+06 1.69332854575490e+06 8.12460491508678e+02 -1.49054255252513e+03 -4.50513779993757e+02
5.26380000000000e+05 -3.10051608934220e+07 8.67169937387973e+06 1.66626180588874e+06 8.11547402874006e+02 -1.50106838421053e+03 -4.51709014801969e+02
5.26440000000000e+05 -3.09564944958444e+07 8.58131953581222e+06 1.63912369052873e+06 8.10672234692395e+02 -1.51159257374924e+03 -4.52892921990385e+02
5.26500000000000e+05 -3.09078794512574e+07 8.49030830689488e+06 1.61191488677071e+06 8.09835766659417e+02 -1.52211466964066e+03 -4.54065253020839e+02
5.26560000000000e+05 -3.08593134142063e+07 8.39866582658728e+06 1.58463609672805e+06 8.09038780639730e+02 -1.53263420853281e+03 -4.55225755842875e+02
5.26620000000000e+05 -3.08107939923372e+07 8.30639226224352e+06 1.55728803774299e+06 8.08282060471643e+02 -1.54315071498684e+03 -4.56374174875451e+02
5.26680000000000e+05 -3.07623187459956e+07 8.21348781091567e+06 1.52987144259898e+06 8.07566391696272e+02 -1.55366370127595e+03 -4.57510250989893e+02
5.26740000000000e+05 -3.07138851885647e+07 8.11995269849093e+06 1.50238705973402e+06 8.06892561411861e+02 -1.56417266711321e+03 -4.58633721494154e+02
5.26800000000000e+05 -3.06654907860897e+07 8.02578718152345e+06 1.47483565345489e+06 8.06261357985709e+02 -1.57467709944919e+03 -4.59744320118461e+02
5.26860000000000e+05 -3.06171329572816e+07 7.93099154773923e+06 1.44721800415221e+06 8.05673570823805e+02 -1.58517647223411e+03 -4.60841777002421e+02
5.26920000000000e+05 -3.05688090734621e+07 7.83556611682302e+06 1.41953490851624e+06 8.05129990117966e+02 -1.59567024618680e+03 -4.61925818683646e+02
5.26980000000000e+05 -3.05205164585242e+07 7.73951124121920e+06 1.39178717975330e+06 8.04631406583587e+02 -1.60615786856372e+03 -4.62996168087992e+02
5.27040000000000e+05 -3.04722523889093e+07 7.64282730694635e+06 1.36397564780268e+06 8.04178611187846e+02 -1.61663877292821e+03 -4.64052544521470e+02
5.27100000000000e+05 -3.04240140935999e+07 7.54551473442583e+06 1.33610115955412e+06 8.03772394868155e+02 -1.62711237892020e+03 -4.65094663663933e+02
5.27160000000000e+05 -3.03757987541956e+07 7.44757397905999e+06 1.30816457906542e+06 8.03413548254913e+02 -1.63757809201960e+03 -4.66122237564592e+02
5.27220000000000e+05 -3.03276035046806e+07 7.34900553314488e+06 1.28016678778046e+06 8.03102861313069e+02 -1.64803530334550e+03 -4.67134974639471e+02
5.27280000000000e+05 -3.02794254318623e+07 7.24980992515433e+06 1.25210868474713e+06 8.02841123115374e+02 -1.65848338938677e+03 -4.68132579670872e+02
5.27340000000000e+05 -3.02312615751748e+07 7.14998772168091e+06 1.22399118683540e+06 8.02629121463361e+02 -1.66892171180380e+03 -4.69114753808940e+02
5.27400000000000e+05 -3.01831089268303e+07 7.04953952806818e+06 1.19581522895508e+06 8.02467642568494e+02 -1.67934961719717e+03 -4.70081194575423e+02
5.27460000000000e+05 -3.01349644319244e+07 6.94846598932102e+06 1.16758176427339e+06 8.02357470708365e+02 -1.68976643688510e+03 -4.71031595869715e+02
5.27520000000000e+05 -3.00868249885630e+07 6.84676779102928e+06 1.13929176443205e+06 8.02299387871914e+02 -1.70017148668330e+03 -4.71965647977280e+02
5.27580000000000e+05 -3.00386874480105e+07 6.74444566030429e+06 1.11094621976381e+06 8.02294173393520e+02 -1.71056406668737e+03 -4.72883037580544e+02
5.27640000000000e+05 -2.99905486149180e+07 6.64150036646799e+06 1.08254613950822e+06 8.02342603590763e+02 -1.72094346105101e+03 -4.73783447772361e+02
5.27700000000000e+05 -2.99424052472849e+07 6.53793272305852e+06 1.05409255202659e+06 8.02445451316043e+02 -1.73130893780247e+03 -4.74666558072155e+02
5.27760000000000e+05 -2.98942540570252e+07 6.43374358723983e+06 1.02558650501576e+06 8.02603485645865e+02 -1.74165974859473e+03 -4.75532044444826e+02
5.27820000000000e+05 -2.98460917099756e+07 6.32893386183314e+06 9.97029065720773e+05 8.02817471409362e+02 -1.75199512852932e+03 -4.76379579322541e+02
5.27880000000000e+05 -2.97979148262205e+07 6.22350449605531e+06 9.68421321146145e+05 8.03088168779415e+02 -1.76231429594962e+03 -4.77208831629497e+02
END Ephemeris
